MACSAT 2 (M 2)          
<<<<<<< .mine
1 20608U 90043B   13103.83391715  .00001172  00000-0  16759-3 0  9281
2 20608  89.7556  37.0521 0092304   8.1086  24.8918 14.73131298228853
=======
1 20608U 90043B   13108.33856998  .00000626  00000-0  88506-4 0  9328
2 20608  89.7564  36.9155 0091571 352.0206 154.4495 14.73136768229514
>>>>>>> .r6620
TUBSAT A                
<<<<<<< .mine
1 21577U 91050D   13103.48473063  .00000202  00000-0  80475-4 0  6359
2 21577  98.6574  67.3320 0006161 193.0399 315.1265 14.38861075140968
=======
1 21577U 91050D   13109.46566594  .00000062  00000-0  34896-4 0  6401
2 21577  98.6581  73.3667 0006537 175.5608 335.4737 14.38862892141825
>>>>>>> .r6620
S80/T                   
<<<<<<< .mine
1 22078U 92052C   13104.01028933 -.00000043  00000-0  74868-4 0  3070
2 22078  66.0851 273.2331 0012510 321.0075 185.1570 12.86754542971452
=======
1 22078U 92052C   13108.49463169 -.00000093  00000-0 -12603-3 0  3096
2 22078  66.0854 263.8356 0012723 319.6712  77.3047 12.86755322972037
>>>>>>> .r6620
HEALTHSAT 1             
<<<<<<< .mine
1 22827U 93061E   13103.83660291  .00000249  00000-0  11218-3 0  3909
2 22827  98.6094  51.2507 0010093  84.0894 309.8873 14.30565093 19874
=======
1 22827U 93061E   13109.85164550  .00000095  00000-0  53040-4 0  3958
2 22827  98.6107  57.2056 0009947  68.3435 325.6451 14.30566930 20732
>>>>>>> .r6620
TUBSAT B                
<<<<<<< .mine
1 22970U 94003B   13104.03443124 -.00000102  00000-0 -29762-3 0  1486
2 22970  82.5623 243.7616 0015758   0.0337 136.4140 13.16934281923838
=======
1 22970U 94003B   13109.49116970  .00000256  00000-0  63304-3 0  1520
2 22970  82.5631 239.9098 0015477 345.7015  87.3089 13.16928822924558
>>>>>>> .r6620
CERISE                  
<<<<<<< .mine
1 23606U 95033B   13104.15752821  .00002400  00000-0  26681-3 0   518
2 23606  98.3514 309.2327 0004764 256.2702 103.7983 14.88190890959327
=======
1 23606U 95033B   13109.80535173  .00001405  00000-0  15892-3 0   565
2 23606  98.3506 315.1806 0005116 233.0279 127.0468 14.88204615960162
>>>>>>> .r6620
UPM/LBSAT               
<<<<<<< .mine
1 23607U 95033C   13102.92112873  .00001008  00000-0  15424-3 0  2584
2 23607  98.2260 226.2446 0007397 115.1743  32.5494 14.75960692954814
=======
1 23607U 95033C   13109.96958265  .00000540  00000-0  86226-4 0  2644
2 23607  98.2273 233.4176 0007332  97.0302  39.9338 14.75968459955858
>>>>>>> .r6620
FAISAT 2V               
<<<<<<< .mine
1 24954U 97052B   13103.25314766  .00000067  00000-0  49793-4 0  7536
2 24954  82.9252 350.0634 0040121 164.9397 344.0746 13.79773063783172
=======
1 24954U 97052B   13110.14563593  .00000105  00000-0  85708-4 0  7591
2 24954  82.9240 344.9024 0040542 145.9643  19.9279 13.79773269784127
>>>>>>> .r6620
MUBLCOM                 
<<<<<<< .mine
1 25736U 99026B   13104.12930807  .00000911  00000-0  26651-3 0  8878
2 25736  97.6740 291.5827 0006759  78.5387 281.6565 14.45936238732535
=======
1 25736U 99026B   13109.11172971  .00000577  00000-0  17257-3 0  8917
2 25736  97.6736 296.0933 0006528  66.3112 293.8767 14.45941701733253
>>>>>>> .r6620
RUBIN-3 & SL-8 R/B      
<<<<<<< .mine
1 27561U 02054C   13103.05350716  .00000621  00000-0  15450-3 0  8689
2 27561  98.0438 253.0386 0046657 222.3094 252.3917 14.54392803550347
=======
1 27561U 02054C   13108.07912091  .00000327  00000-0  86316-4 0  8724
2 27561  98.0441 257.8718 0047041 206.5986 285.7174 14.54396847551072
>>>>>>> .r6620
APRIZESAT 2             
<<<<<<< .mine
1 28366U 04025A   13103.38446494  .00000224  00000-0  86524-4 0  4572
2 28366  98.2652  48.4115 0107504 296.5803 210.2238 14.35969730460568
=======
1 28366U 04025A   13108.80248579  .00000075  00000-0  38617-4 0  4617
2 28366  98.2661  53.6091 0107461 280.1520 138.8473 14.35971362461343
>>>>>>> .r6620
SAUDICOMSAT 1           
<<<<<<< .mine
1 28369U 04025D   13103.52385013  .00000500  00000-0  13546-3 0  5177
2 28369  97.9912  90.7920 0034874  57.2171  89.2086 14.51217759465418
=======
1 28369U 04025D   13107.52285596  .00000312  00000-0  88586-4 0  5208
2 28369  97.9911  94.5937 0034632  45.2102 101.2058 14.51220285465995
>>>>>>> .r6620
SAUDICOMSAT 2           
<<<<<<< .mine
1 28370U 04025E   13103.98292949  .00000343  00000-0  10519-3 0  5132
2 28370  98.0988  75.5852 0059931 127.3321 264.8406 14.46291606463914
=======
1 28370U 04025E   13109.93308297  .00000234  00000-0  75597-4 0  5189
2 28370  98.0994  81.2722 0060044 109.5324 284.8350 14.46294416464770
>>>>>>> .r6620
APRIZESAT 1             
<<<<<<< .mine
1 28372U 04025G   13103.94378194  .00000312  00000-0  92906-4 0  5033
2 28372  98.0472  82.3450 0048398  91.1993 303.0951 14.48641629464673
=======
1 28372U 04025G   13107.81821080  .00000242  00000-0  74573-4 0  5065
2 28372  98.0474  86.0385 0048324  79.6077 348.3602 14.48643613465239
>>>>>>> .r6620
NANOSAT-1               
<<<<<<< .mine
1 28493U 04049B   13103.60332786  .00000755  00000-0  13025-3 0  5263
2 28493  98.3823 119.0835 0005530 150.8524 355.9542 14.71516086446417
=======
1 28493U 04049B   13109.08954723  .00000426  00000-0  77187-4 0  5302
2 28493  98.3815 124.7328 0005797 137.2552 255.2740 14.71520489447227
>>>>>>> .r6620
SAUDICOMSAT 7           
<<<<<<< .mine
1 31119U 07012C   13104.11645325  .00000374  00000-0  84843-4 0  8232
2 31119  97.8268 121.8512 0061790 187.6553 203.7257 14.60157825319283
=======
1 31119U 07012C   13108.09132961  .00000278  00000-0  65345-4 0  8262
2 31119  97.8264 125.6064 0062124 175.2251 217.8545 14.60159597319861
>>>>>>> .r6620
SAUDICOMSAT 6           
<<<<<<< .mine
1 31121U 07012E   13104.08145126  .00000334  00000-0  81250-4 0  8207
2 31121  97.8509 111.7460 0077819 221.6940 169.7553 14.57001857318606
=======
1 31121U 07012E   13110.05649653  .00000253  00000-0  63752-4 0  8257
2 31121  97.8504 117.3804 0078268 202.8817 190.2282 14.57004624319477
>>>>>>> .r6620
SAUDICOMSAT 5           
<<<<<<< .mine
1 31124U 07012H   13104.06419829  .00000411  00000-0  89632-4 0  8301
2 31124  97.8195 127.6405 0053695 171.3018 222.9649 14.61779938319626
=======
1 31124U 07012H   13110.08780816  .00000341  00000-0  75803-4 0  8359
2 31124  97.8184 133.3401 0054089 152.5603 241.4068 14.61783118320508
>>>>>>> .r6620
SAUDICOMSAT 3           
<<<<<<< .mine
1 31125U 07012J   13104.14241372  .00000471  00000-0  98474-4 0  8431
2 31125  97.8150 133.3956 0045658 155.3423 236.6257 14.63363856319970
=======
1 31125U 07012J   13108.10860738  .00000345  00000-0  74490-4 0  8469
2 31125  97.8145 137.1559 0045889 143.1623 250.6053 14.63366229320551
>>>>>>> .r6620
SAUDICOMSAT 4           
<<<<<<< .mine
1 31127U 07012L   13104.07383641  .00000356  00000-0  83408-4 0  8287
2 31127  97.8375 117.0437 0069545 203.9362 189.0549 14.58675607318953
=======
1 31127U 07012L   13110.04193991  .00000278  00000-0  67153-4 0  8336
2 31127  97.8369 122.6768 0070084 185.1947 208.9736 14.58678519319826
>>>>>>> .r6620
APRIZESAT 4             
<<<<<<< .mine
1 35684U 09041D   13102.82276025  .00000948  00000-0  13948-3 0  1620
2 35684  98.0591  19.3717 0048317 334.9339  56.5447 14.77047265199648
=======
1 35684U 09041D   13109.34805934  .00000389  00000-0  61798-4 0  1672
2 35684  98.0597  25.8891 0047973 313.4934 194.5201 14.77054207200603
>>>>>>> .r6620
APRIZESAT 3             
<<<<<<< .mine
1 35686U 09041F   13103.86271727  .00001048  00000-0  12671-3 0  1849
2 35686  98.1084  37.1370 0076144 291.4426 100.0327 14.84028437200692
=======
1 35686U 09041F   13109.86355675  .00000596  00000-0  75144-4 0  1897
2 35686  98.1095  43.2346 0076160 271.5926 119.9751 14.84035764201587
>>>>>>> .r6620
AISSAT 1                
<<<<<<< .mine
1 36797U 10035C   13104.16497456  .00001417  00000-0  18455-3 0  9878
2 36797  98.0346 188.2887 0010884 284.8921  75.1096 14.82166683149064
=======
1 36797U 10035C   13110.10581462  .00001067  00000-0  14070-3 0    51
2 36797  98.0340 194.2531 0010917 263.4946  96.5013 14.82179309149940
>>>>>>> .r6620
